{"type": "FeatureCollection", "features": [ {"type": "Feature", "properties": {"norad_id": 39634, "name": "SENTINEL-1A", "group": "resource", "lat": 4.868428866468441, "lon": 0.10679084340840536, "alt_km": 697.9153259116283, "timestamp": "2025-12-21T16:47:54.385825+00:00", "meta": {"OBJECT_NAME": "SENTINEL-1A", "OBJECT_ID": "2014-016A", "EPOCH": "2025-12-21T13:29:04.341984", "MEAN_MOTION": 14.5920109, "ECCENTRICITY": 0.0001276, "INCLINATION": 98.1794, "RA_OF_ASC_NODE": 0.6727, "ARG_OF_PERICENTER": 84.836, "MEAN_ANOMALY": 275.2985, "EPHEMERIS_TYPE": 0, "CLASSIFICATION_TYPE": "U", "NORAD_CAT_ID": 39634, "ELEMENT_SET_NO": 999, "REV_AT_EPOCH": 62411, "BSTAR": 2.7865e-05, "MEAN_MOTION_DOT": 8.6e-07, "MEAN_MOTION_DDOT": 0}, "tle": {"line1": "1 39634U 14016A   25355.56185581  .00000086  00000+0  27865-4 0  9991", "line2": "2 39634  98.1794   0.6727 0001276  84.8360 275.2985 14.59201090624115"}}, "geometry": {"type": "Point", "coordinates": [0.10679084340840536, 4.868428866468441]}}, {"type": "Feature", "properties": {"norad_id": 39731, "name": "KAZEOSAT 1", "group": "resource", "lat": 31.79860218879582, "lon": -107.37327127860154, "alt_km": 749.2971888027378, "timestamp": "2025-12-21T16:47:54.385835+00:00", "meta": {"OBJECT_NAME": "KAZEOSAT 1", "OBJECT_ID": "2014-024A", "EPOCH": "2025-12-21T11:07:12.148320", "MEAN_MOTION": 14.42067612, "ECCENTRICITY": 0.0001204, "INCLINATION": 98.343, "RA_OF_ASC_NODE": 67.1754, "ARG_OF_PERICENTER": 97.0247, "MEAN_ANOMALY": 263.108, "EPHEMERIS_TYPE": 0, "CLASSIFICATION_TYPE": "U", "NORAD_CAT_ID": 39731, "ELEMENT_SET_NO": 999, "REV_AT_EPOCH": 61294, "BSTAR": 0.00011927, "MEAN_MOTION_DOT": 3.49e-06, "MEAN_MOTION_DDOT": 0}, "tle": {"line1": "1 39731U 14024A   25355.46333505  .00000349  00000+0  11927-3 0  9991", "line2": "2 39731  98.3430  67.1754 0001204  97.0247 263.1080 14.42067612612943"}}, "geometry": {"type": "Point", "coordinates": [-107.37327127860154, 31.79860218879582]}}, {"type": "Feature", "properties": {"norad_id": 39766, "name": "ALOS-2", "group": "resource", "lat": 23.296259186424724, "lon": -86.14320564023939, "alt_km": 630.062800039831, "timestamp": "2025-12-21T16:47:54.385846+00:00", "meta": {"OBJECT_NAME": "ALOS-2", "OBJECT_ID": "2014-029A", "EPOCH": "2025-12-21T12:50:51.887328", "MEAN_MOTION": 14.79472143, "ECCENTRICITY": 0.0001398, "INCLINATION": 97.9232, "RA_OF_ASC_NODE": 90.2566, "ARG_OF_PERICENTER": 97.375, "MEAN_ANOMALY": 262.7621, "EPHEMERIS_TYPE": 0, "CLASSIFICATION_TYPE": "U", "NORAD_CAT_ID": 39766, "ELEMENT_SET_NO": 999, "REV_AT_EPOCH": 62531, "BSTAR": 0.00020717, "MEAN_MOTION_DOT": 1.496e-05, "MEAN_MOTION_DDOT": 0}, "tle": {"line1": "1 39766U 14029A   25355.53532277  .00001496  00000+0  20717-3 0  9990", "line2": "2 39766  97.9232  90.2566 0001398  97.3750 262.7621 14.79472143625310"}}, "geometry": {"type": "Point", "coordinates": [-86.14320564023939, 23.296259186424724]}}, {"type": "Feature", "properties": {"norad_id": 40010, "name": "KAZEOSAT 2", "group": "resource", "lat": -68.82859647628928, "lon": -0.47349981253773726, "alt_km": 618.7101999063116, "timestamp": "2025-12-21T16:47:54.385856+00:00", "meta": {"OBJECT_NAME": "KAZEOSAT 2", "OBJECT_ID": "2014-033A", "EPOCH": "2025-12-21T12:26:31.493184", "MEAN_MOTION": 14.85179985, "ECCENTRICITY": 0.0008462, "INCLINATION": 97.5495, "RA_OF_ASC_NODE": 199.3791, "ARG_OF_PERICENTER": 176.2991, "MEAN_ANOMALY": 183.8288, "EPHEMERIS_TYPE": 0, "CLASSIFICATION_TYPE": "U", "NORAD_CAT_ID": 40010, "ELEMENT_SET_NO": 999, "REV_AT_EPOCH": 62258, "BSTAR": 6.1933e-05, "MEAN_MOTION_DOT": 4.81e-06, "MEAN_MOTION_DDOT": 0}, "tle": {"line1": "1 40010U 14033A   25355.51842006  .00000481  00000+0  61933-4 0  9990", "line2": "2 40010  97.5495 199.3791 0008462 176.2991 183.8288 14.85179985622588"}}, "geometry": {"type": "Point", "coordinates": [-0.47349981253773726, -68.82859647628928]}}, {"type": "Feature", "properties": {"norad_id": 40011, "name": "HODOYOSHI-4", "group": "resource", "lat": 51.64518391471606, "lon": 174.5046149879928, "alt_km": 608.7933918247509, "timestamp": "2025-12-21T16:47:54.385867+00:00", "meta": {"OBJECT_NAME": "HODOYOSHI-4", "OBJECT_ID": "2014-033B", "EPOCH": "2025-12-21T11:43:12.107712", "MEAN_MOTION": 14.87510993, "ECCENTRICITY": 0.0023895, "INCLINATION": 97.5406, "RA_OF_ASC_NODE": 183.9401, "ARG_OF_PERICENTER": 171.188, "MEAN_ANOMALY": 188.9761, "EPHEMERIS_TYPE": 0, "CLASSIFICATION_TYPE": "U", "NORAD_CAT_ID": 40011, "ELEMENT_SET_NO": 999, "REV_AT_EPOCH": 62238, "BSTAR": 0.00018318, "MEAN_MOTION_DOT": 1.617e-05, "MEAN_MOTION_DDOT": 0}, "tle": {"line1": "1 40011U 14033B   25355.48833458  .00001617  00000+0  18318-3 0  9998", "line2": "2 40011  97.5406 183.9401 0023895 171.1880 188.9761 14.87510993622386"}}, "geometry": {"type": "Point", "coordinates": [174.5046149879928, 51.64518391471606]}}, {"type": "Feature", "properties": {"norad_id": 40013, "name": "DEIMOS-2", "group": "resource", "lat": 26.470088133631126, "lon": -132.61127617817414, "alt_km": 587.3907029232159, "timestamp": "2025-12-21T16:47:54.385878+00:00", "meta": {"OBJECT_NAME": "DEIMOS-2", "OBJECT_ID": "2014-033D", "EPOCH": "2025-12-21T13:27:43.708320", "MEAN_MOTION": 14.93010538, "ECCENTRICITY": 0.0001521, "INCLINATION": 97.6068, "RA_OF_ASC_NODE": 231.0698, "ARG_OF_PERICENTER": 103.7244, "MEAN_ANOMALY": 256.4145, "EPHEMERIS_TYPE": 0, "CLASSIFICATION_TYPE": "U", "NORAD_CAT_ID": 40013, "ELEMENT_SET_NO": 999, "REV_AT_EPOCH": 61121, "BSTAR": 0.00018439, "MEAN_MOTION_DOT": 1.863e-05, "MEAN_MOTION_DDOT": 0}, "tle": {"line1": "1 40013U 14033D   25355.56092255  .00001863  00000+0  18439-3 0  9998", "line2": "2 40013  97.6068 231.0698 0001521 103.7244 256.4145 14.93010538611217"}}, "geometry": {"type": "Point", "coordinates": [-132.61127617817414, 26.470088133631126]}}, {"type": "Feature", "properties": {"norad_id": 40015, "name": "HODOYOSHI-3", "group": "resource", "lat": -70.58991620051377, "lon": -41.18588156368189, "alt_km": 602.7846266096767, "timestamp": "2025-12-21T16:47:54.385888+00:00", "meta": {"OBJECT_NAME": "HODOYOSHI-3", "OBJECT_ID": "2014-033F", "EPOCH": "2025-12-21T10:48:52.181280", "MEAN_MOTION": 14.84833803, "ECCENTRICITY": 0.00323, "INCLINATION": 97.6204, "RA_OF_ASC_NODE": 160.9071, "ARG_OF_PERICENTER": 218.2843, "MEAN_ANOMALY": 141.608, "EPHEMERIS_TYPE": 0, "CLASSIFICATION_TYPE": "U", "NORAD_CAT_ID": 40015, "ELEMENT_SET_NO": 999, "REV_AT_EPOCH": 62124, "BSTAR": 0.00015524, "MEAN_MOTION_DOT": 1.278e-05, "MEAN_MOTION_DDOT": 0}, "tle": {"line1": "1 40015U 14033F   25355.45060395  .00001278  00000+0  15524-3 0  9990", "line2": "2 40015  97.6204 160.9071 0032300 218.2843 141.6080 14.84833803621247"}}, "geometry": {"type": "Point", "coordinates": [-41.18588156368189, -70.58991620051377]}}, {"type": "Feature", "properties": {"norad_id": 40053, "name": "SPOT 7", "group": "resource", "lat": -77.77111726284402, "lon": 98.58535946198636, "alt_km": 699.1699841652189, "timestamp": "2025-12-21T16:47:54.385900+00:00", "meta": {"OBJECT_NAME": "SPOT 7", "OBJECT_ID": "2014-034A", "EPOCH": "2025-12-21T12:14:09.673152", "MEAN_MOTION": 14.60744762, "ECCENTRICITY": 0.0001565, "INCLINATION": 98.09, "RA_OF_ASC_NODE": 57.3836, "ARG_OF_PERICENTER": 84.4079, "MEAN_ANOMALY": 275.73, "EPHEMERIS_TYPE": 0, "CLASSIFICATION_TYPE": "U", "NORAD_CAT_ID": 40053, "ELEMENT_SET_NO": 999, "REV_AT_EPOCH": 61119, "BSTAR": 0.00014446, "MEAN_MOTION_DOT": 6.59e-06, "MEAN_MOTION_DDOT": 0}, "tle": {"line1": "1 40053U 14034A   25355.50983418  .00000659  00000+0  14446-3 0  9993", "line2": "2 40053  98.0900  57.3836 0001565  84.4079 275.7300 14.60744762611194"}}, "geometry": {"type": "Point", "coordinates": [98.58535946198636, -77.77111726284402]}}, {"type": "Feature", "properties": {"norad_id": 40072, "name": "SKYSAT-B", "group": "resource", "lat": -8.716102063798585, "lon": -58.82817404256537, "alt_km": 613.4894195493616, "timestamp": "2025-12-21T16:47:54.385913+00:00", "meta": {"OBJECT_NAME": "SKYSAT-B", "OBJECT_ID": "2014-037D", "EPOCH": "2025-12-21T08:45:54.317664", "MEAN_MOTION": 14.87355619, "ECCENTRICITY": 0.000668, "INCLINATION": 98.3624, "RA_OF_ASC_NODE": 299.5272, "ARG_OF_PERICENTER": 125.9146, "MEAN_ANOMALY": 234.2689, "EPHEMERIS_TYPE": 0, "CLASSIFICATION_TYPE": "U", "NORAD_CAT_ID": 40072, "ELEMENT_SET_NO": 999, "REV_AT_EPOCH": 61952, "BSTAR": 0.00015309, "MEAN_MOTION_DOT": 1.322e-05, "MEAN_MOTION_DDOT": 0}, "tle": {"line1": "1 40072U 14037D   25355.36521201  .00001322  00000+0  15309-3 0  9996", "line2": "2 40072  98.3624 299.5272 0006680 125.9146 234.2689 14.87355619619527"}}, "geometry": {"type": "Point", "coordinates": [-58.82817404256537, -8.716102063798585]}}, {"type": "Feature", "properties": {"norad_id": 40115, "name": "WORLDVIEW-3 (WV-3)", "group": "resource", "lat": 8.507756262653501, "lon": -110.94342076939661, "alt_km": 615.4555727658399, "timestamp": "2025-12-21T16:47:54.385923+00:00", "meta": {"OBJECT_NAME": "WORLDVIEW-3 (WV-3)", "OBJECT_ID": "2014-048A", "EPOCH": "2025-12-21T11:10:36.965568", "MEAN_MOTION": 14.84666267, "ECCENTRICITY": 0.0001846, "INCLINATION": 97.8769, "RA_OF_ASC_NODE": 67.6385, "ARG_OF_PERICENTER": 134.9342, "MEAN_ANOMALY": 225.2022, "EPHEMERIS_TYPE": 0, "CLASSIFICATION_TYPE": "U", "NORAD_CAT_ID": 40115, "ELEMENT_SET_NO": 999, "REV_AT_EPOCH": 61553, "BSTAR": 0.00010611, "MEAN_MOTION_DOT": 8.44e-06, "MEAN_MOTION_DDOT": 0}, "tle": {"line1": "1 40115U 14048A   25355.46570562  .00000844  00000+0  10611-3 0  9990", "line2": "2 40115  97.8769  67.6385 0001846 134.9342 225.2022 14.84666267615534"}}, "geometry": {"type": "Point", "coordinates": [-110.94342076939661, 8.507756262653501]}}]}